[{"OBJECT_NAME":"EOSSAT-1","OBJECT_ID":"2023-001AW","EPOCH":"2026-03-09T17:40:07.010400","MEAN_MOTION":15.32339828,"ECCENTRICITY":0.00112629,"INCLINATION":97.3357,"RA_OF_ASC_NODE":130.2294,"ARG_OF_PERICENTER":110.3168,"MEAN_ANOMALY":249.9285,"EPHEMERIS_TYPE":0,"CLASSIFICATION_TYPE":"U","NORAD_CAT_ID":55053,"ELEMENT_SET_NO":999,"REV_AT_EPOCH":17668,"BSTAR":0.00024844399,"MEAN_MOTION_DOT":7.695e-5,"MEAN_MOTION_DDOT":0},{"OBJECT_NAME":"STARLINK-35613","OBJECT_ID":"2025-236M","EPOCH":"2026-03-09T11:21:32.462496","MEAN_MOTION":15.30202761,"ECCENTRICITY":0.00012116,"INCLINATION":53.1589,"RA_OF_ASC_NODE":104.724,"ARG_OF_PERICENTER":91.141,"MEAN_ANOMALY":268.9729,"EPHEMERIS_TYPE":0,"CLASSIFICATION_TYPE":"U","NORAD_CAT_ID":66097,"ELEMENT_SET_NO":999,"REV_AT_EPOCH":2291,"BSTAR":0.0008208773,"MEAN_MOTION_DOT":0.00024034,"MEAN_MOTION_DDOT":0}]
